OBJECT_NAME,OBJECT_ID,EPOCH,MEAN_MOTION,ECCENTRICITY,INCLINATION,RA_OF_ASC_NODE,ARG_OF_PERICENTER,MEAN_ANOMALY,EPHEMERIS_TYPE,CLASSIFICATION_TYPE,NORAD_CAT_ID,ELEMENT_SET_NO,REV_AT_EPOCH,BSTAR,MEAN_MOTION_DOT,MEAN_MOTION_DDOT
SAR-LUPE 2,2007-030A,2026-06-13T22:11:35.089152,15.49508208,.00063245,98.1041,268.9539,144.5252,215.6418,0,U,31797,999,5643,.22439681E-3,.12263E-3,0
SAPPHIRE,2013-009C,2026-06-13T22:55:09.582528,14.35239754,.00100013,98.4259,344.4876,257.4124,102.5944,0,U,39088,999,69611,.5179148E-4,.105E-5,0
PRAETORIAN SDA_602,2025-203A,2026-06-13T21:59:17.018880,13.84342399,.00055929,81.3032,13.7991,193.2163,166.8848,0,U,65565,999,3824,.39033705E-4,.56E-6,0
PRAETORIAN SDA_603,2025-203B,2026-06-13T22:36:13.467456,13.83905255,.00091675,81.3039,13.6899,196.5710,163.5149,0,U,65566,999,3825,.20985093E-3,.245E-5,0
PRAETORIAN SDA_604,2025-203C,2026-06-13T19:33:22.304736,13.83047142,.0005085,81.3055,14.2143,201.3159,158.7786,0,U,65567,999,3821,.43009535E-4,.59E-6,0
PRAETORIAN SDA_605,2025-203D,2026-06-13T22:13:05.881728,13.83433892,.0007911,81.3020,13.7780,192.0480,168.0488,0,U,65568,999,3824,.33218584E-4,.48E-6,0
PRAETORIAN SDA_606,2025-203E,2026-06-13T21:47:52.501056,13.83407045,.00055332,81.3056,14.0146,190.0968,170.0078,0,U,65569,999,3823,.53577511E-4,.71E-6,0
PRAETORIAN SDA_607,2025-203F,2026-06-13T22:02:25.932480,13.84284322,.00084615,81.3039,13.6736,196.7477,163.3401,0,U,65570,999,3825,.20520718E-3,.241E-5,0
PRAETORIAN SDA_608,2025-203G,2026-06-13T19:44:10.861152,13.83816435,.00055957,81.3008,13.9228,200.4600,159.6333,0,U,65571,999,3822,.37722025E-4,.54E-6,0
PRAETORIAN SDA_609,2025-203H,2026-06-13T21:36:42.917472,13.84211972,.00064919,81.3050,13.8341,194.4373,165.6600,0,U,65572,999,3824,.15966757E-3,.19E-5,0
PRAETORIAN SDA_610,2025-203J,2026-06-13T22:43:22.762272,13.83851589,.00062651,81.3008,13.7657,197.6447,162.4493,0,U,65573,999,3824,.31885563E-4,.47E-6,0
PRAETORIAN SDA_611,2025-203K,2026-06-13T22:42:40.478976,13.83309023,.00051728,81.3012,13.9300,204.0265,156.0651,0,U,65574,999,3823,.23425277E-3,.269E-5,0
PRAETORIAN SDA_612,2025-203L,2026-06-13T22:33:32.550912,13.85039008,.00089049,81.3029,13.5294,196.0968,163.9907,0,U,65575,999,3826,.17693505E-3,.212E-5,0
PRAETORIAN SDA_613,2025-203M,2026-06-13T22:50:33.252864,13.82764761,.00053762,81.3000,13.9186,193.0413,167.0605,0,U,65576,999,3823,.37997341E-4,.53E-6,0
PRAETORIAN SDA_614,2025-203N,2026-06-13T22:17:04.514208,13.84777814,.00068193,81.3015,13.6170,192.8797,167.2187,0,U,65577,999,3826,.1972597E-4,.34E-6,0
PRAETORIAN SDA_615,2025-203P,2026-06-13T21:42:38.100960,13.84435603,.00087561,81.3026,13.6007,194.4211,165.6698,0,U,65578,999,3825,.13953255E-3,.168E-5,0
PRAETORIAN SDA_616,2025-203Q,2026-06-13T22:41:24.185184,13.83267593,.00050549,81.3065,14.0731,201.8303,158.2638,0,U,65579,999,3823,.14828328E-3,.175E-5,0
PRAETORIAN SDA_617,2025-203R,2026-06-13T19:43:46.863552,13.83149838,.00070771,81.3038,14.0185,193.4709,166.6259,0,U,65580,999,3822,.16295945E-4,.3E-6,0
PRAETORIAN SDA_618,2025-203S,2026-06-13T22:38:35.737152,13.84669359,.00094849,81.3023,13.4964,196.7708,163.3137,0,U,65581,999,3826,.19353111E-3,.229E-5,0
PRAETORIAN SDA_619,2025-203T,2026-06-13T21:43:19.763904,13.83805186,.00079252,81.3046,13.8230,194.7586,165.3340,0,U,65582,999,3887,.16845974E-3,.198E-5,0
PRAETORIAN SDA_620,2025-203U,2026-06-13T22:22:59.683872,13.83618012,.0007318,81.3030,13.8179,189.8955,170.2058,0,U,65583,999,3824,.95695026E-4,.117E-5,0
PRAETORIAN SDA_621,2025-203V,2026-06-13T21:45:52.062912,13.83800843,.00071781,81.3022,13.7612,187.6474,172.4575,0,U,65584,999,3824,.3521726E-4,.51E-6,0
PRAETORIAN SDA_601,2025-203W,2026-06-13T22:45:34.821216,13.83167461,.00050919,81.3041,14.0163,205.0626,155.0284,0,U,65585,999,3823,.17952021E-3,.208E-5,0
