SAR-LUPE 2              
1 31797U 07030A   26164.92471168  .00012263  00000+0  22440-3 0  9992
2 31797  98.1041 268.9539 0006324 144.5252 215.6418 15.49508208 56439
SAPPHIRE                
1 39088U 13009C   26164.95497202  .00000105  00000+0  51791-4 0  9990
2 39088  98.4259 344.4876 0010001 257.4124 102.5944 14.35239754696111
PRAETORIAN SDA_602      
1 65565U 25203A   26164.91616920  .00000056  00000+0  39034-4 0  9995
2 65565  81.3032  13.7991 0005592 193.2163 166.8848 13.84342399 38246
PRAETORIAN SDA_603      
1 65566U 25203B   26164.94182254  .00000245  00000+0  20985-3 0  9991
2 65566  81.3039  13.6899 0009167 196.5710 163.5149 13.83905255 38250
PRAETORIAN SDA_604      
1 65567U 25203C   26164.81484149  .00000059  00000+0  43010-4 0  9994
2 65567  81.3055  14.2143 0005085 201.3159 158.7786 13.83047142 38216
PRAETORIAN SDA_605      
1 65568U 25203D   26164.92576252  .00000048  00000+0  33219-4 0  9992
2 65568  81.3020  13.7780 0007911 192.0480 168.0488 13.83433892 38240
PRAETORIAN SDA_606      
1 65569U 25203E   26164.90824654  .00000071  00000+0  53578-4 0  9999
2 65569  81.3056  14.0146 0005533 190.0968 170.0078 13.83407045 38235
PRAETORIAN SDA_607      
1 65570U 25203F   26164.91835570  .00000241  00000+0  20521-3 0  9991
2 65570  81.3039  13.6736 0008461 196.7477 163.3401 13.84284322 38258
PRAETORIAN SDA_608      
1 65571U 25203G   26164.82234793  .00000054  00000+0  37722-4 0  9996
2 65571  81.3008  13.9228 0005595 200.4600 159.6333 13.83816435 38224
PRAETORIAN SDA_609      
1 65572U 25203H   26164.90049673  .00000190  00000+0  15967-3 0  9994
2 65572  81.3050  13.8341 0006491 194.4373 165.6600 13.84211972 38244
PRAETORIAN SDA_610      
1 65573U 25203J   26164.94679123  .00000047  00000+0  31886-4 0  9998
2 65573  81.3008  13.7657 0006265 197.6447 162.4493 13.83851589 38241
PRAETORIAN SDA_611      
1 65574U 25203K   26164.94630184  .00000269  00000+0  23425-3 0  9998
2 65574  81.3012  13.9300 0005172 204.0265 156.0651 13.83309023 38236
PRAETORIAN SDA_612      
1 65575U 25203L   26164.93996008  .00000212  00000+0  17694-3 0  9997
2 65575  81.3029  13.5294 0008904 196.0968 163.9907 13.85039008 38268
PRAETORIAN SDA_613      
1 65576U 25203M   26164.95177376  .00000053  00000+0  37997-4 0  9991
2 65576  81.3000  13.9186 0005376 193.0413 167.0605 13.82764761 38239
PRAETORIAN SDA_614      
1 65577U 25203N   26164.92852447  .00000034  00000+0  19726-4 0  9997
2 65577  81.3015  13.6170 0006819 192.8797 167.2187 13.84777814 38266
PRAETORIAN SDA_615      
1 65578U 25203P   26164.90460765  .00000168  00000+0  13953-3 0  9997
2 65578  81.3026  13.6007 0008756 194.4211 165.6698 13.84435603 38254
PRAETORIAN SDA_616      
1 65579U 25203Q   26164.94541881  .00000175  00000+0  14828-3 0  9991
2 65579  81.3065  14.0731 0005054 201.8303 158.2638 13.83267593 38230
PRAETORIAN SDA_617      
1 65580U 25203R   26164.82207018  .00000030  00000+0  16296-4 0  9993
2 65580  81.3038  14.0185 0007077 193.4709 166.6259 13.83149838 38220
PRAETORIAN SDA_618      
1 65581U 25203S   26164.94346918  .00000229  00000+0  19353-3 0  9996
2 65581  81.3023  13.4964 0009484 196.7708 163.3137 13.84669359 38261
PRAETORIAN SDA_619      
1 65582U 25203T   26164.90508986  .00000198  00000+0  16846-3 0  9997
2 65582  81.3046  13.8230 0007925 194.7586 165.3340 13.83805186 38871
PRAETORIAN SDA_620      
1 65583U 25203U   26164.93263523  .00000117  00000+0  95695-4 0  9997
2 65583  81.3030  13.8179 0007318 189.8955 170.2058 13.83618012 38240
PRAETORIAN SDA_621      
1 65584U 25203V   26164.90685258  .00000051  00000+0  35217-4 0  9999
2 65584  81.3022  13.7612 0007178 187.6474 172.4575 13.83800843 38242
PRAETORIAN SDA_601      
1 65585U 25203W   26164.94831969  .00000208  00000+0  17952-3 0  9995
2 65585  81.3041  14.0163 0005091 205.0626 155.0284 13.83167461 38230
